start=new Date('2023-02-08T00:00:00.000Z').valueOf();
sats=[{"LAUNCH_DATE":"2021-04-07","INCLINATION":"53.0517","SEMIMAJOR_AXIS":"6925.318","RA_OF_ASC_NODE":"175.6481","SITE":"AFETR","EPHEMERIS_TYPE":"0","CENTER_NAME":"EARTH","OBJECT_NAME":"STARLINK-2436","TLE_LINE2":"2 48101  53.0517 175.6481 0001755  93.5676 266.5514 15.06409940102878","TIME_SYSTEM":"UTC","CLASSIFICATION_TYPE":"U","APOAPSIS":"548.398","BSTAR":"0.00018949000000","MEAN_MOTION":"15.06409940","MEAN_MOTION_DOT":"0.00002543","OBJECT_ID":"2021-027K","PERIAPSIS":"545.968","FILE":"3777976","DECAY_DATE":null,"REF_FRAME":"TEME","GP_ID":"224743036","PERIOD":"95.592","EPOCH":"2023-02-07T20:43:51.640896","ECCENTRICITY":"0.00017550","MEAN_MOTION_DDOT":"0.0000000000000","REV_AT_EPOCH":"10287","OBJECT_TYPE":"PAYLOAD","MEAN_ELEMENT_THEORY":"SGP4","MEAN_ANOMALY":"266.5514","RCS_SIZE":"LARGE","COUNTRY_CODE":"US","ELEMENT_SET_NO":"999","ARG_OF_PERICENTER":"93.5676","TLE_LINE1":"1 48101U 21027K   23038.86379214  .00002543  00000-0  18949-3 0  9990","NORAD_CAT_ID":"48101"},{"LAUNCH_DATE":"2021-04-07","INCLINATION":"53.0550","SEMIMAJOR_AXIS":"6925.305","RA_OF_ASC_NODE":"166.0485","SITE":"AFETR","EPHEMERIS_TYPE":"0","CENTER_NAME":"EARTH","OBJECT_NAME":"STARLINK-2437","TLE_LINE2":"2 48102  53.0550 166.0485 0001133  84.1043 276.0075 15.06414247102995","TIME_SYSTEM":"UTC","CLASSIFICATION_TYPE":"U","APOAPSIS":"547.955","MEAN_MOTION":"15.06414247","BSTAR":"0.00017769000000","MEAN_MOTION_DOT":"0.00002367","OBJECT_ID":"2021-027L","PERIAPSIS":"546.385","FILE":"3777976","DECAY_DATE":null,"REF_FRAME":"TEME","GP_ID":"224743276","PERIOD":"95.591","ECCENTRICITY":"0.00011330","EPOCH":"2023-02-07T18:33:50.767200","MEAN_MOTION_DDOT":"0.0000000000000","REV_AT_EPOCH":"10299","OBJECT_TYPE":"PAYLOAD","MEAN_ANOMALY":"276.0075","MEAN_ELEMENT_THEORY":"SGP4","RCS_SIZE":"LARGE","COUNTRY_CODE":"US","ELEMENT_SET_NO":"999","ARG_OF_PERICENTER":"84.1043","TLE_LINE1":"1 48102U 21027L   23038.77350425  .00002367  00000-0  17769-3 0  9997","NORAD_CAT_ID":"48102"},{"FILE":"3777479","PERIAPSIS":"546.187","DECAY_DATE":null,"REF_FRAME":"TEME","GP_ID":"224711598","PERIOD":"95.591","EPOCH":"2023-02-07T14:01:46.596576","ECCENTRICITY":"0.00013800","REV_AT_EPOCH":"10256","MEAN_MOTION_DDOT":"0.0000000000000","OBJECT_TYPE":"PAYLOAD","RCS_SIZE":"MEDIUM","MEAN_ELEMENT_THEORY":"SGP4","MEAN_ANOMALY":"286.5203","ELEMENT_SET_NO":"999","COUNTRY_CODE":"US","TLE_LINE1":"1 48103U 21027M   23038.58456709  .00003328  00000-0  24204-3 0  9999","ARG_OF_PERICENTER":"73.5937","NORAD_CAT_ID":"48103","LAUNCH_DATE":"2021-04-07","INCLINATION":"53.0523","RA_OF_ASC_NODE":"166.9384","SEMIMAJOR_AXIS":"6925.277","EPHEMERIS_TYPE":"0","SITE":"AFETR","OBJECT_NAME":"STARLINK-2438","CENTER_NAME":"EARTH","TLE_LINE2":"2 48103  53.0523 166.9384 0001380  73.5937 286.5203 15.06423267102565","APOAPSIS":"548.098","TIME_SYSTEM":"UTC","CLASSIFICATION_TYPE":"U","BSTAR":"0.00024204000000","MEAN_MOTION":"15.06423267","MEAN_MOTION_DOT":"0.00003328","OBJECT_ID":"2021-027M"},{"CENTER_NAME":"EARTH","OBJECT_NAME":"STARLINK-2439","TLE_LINE2":"2 48104  53.0529 171.8535 0001315 102.3535 257.7601 15.06404401102503","BSTAR":"0.00017728000000","MEAN_MOTION":"15.06404401","TIME_SYSTEM":"UTC","CLASSIFICATION_TYPE":"U","APOAPSIS":"548.111","OBJECT_ID":"2021-027N","MEAN_MOTION_DOT":"0.00002360","LAUNCH_DATE":"2021-04-07","INCLINATION":"53.0529","SEMIMAJOR_AXIS":"6925.335","RA_OF_ASC_NODE":"171.8535","SITE":"AFETR","EPHEMERIS_TYPE":"0","MEAN_MOTION_DDOT":"0.0000000000000","REV_AT_EPOCH":"10250","MEAN_ELEMENT_THEORY":"SGP4","MEAN_ANOMALY":"257.7601","RCS_SIZE":"LARGE","OBJECT_TYPE":"PAYLOAD","ARG_OF_PERICENTER":"102.3535","TLE_LINE1":"1 48104U 21027N   23038.59428476  .00002360  00000-0  17728-3 0  9999","COUNTRY_CODE":"US","ELEMENT_SET_NO":"999","NORAD_CAT_ID":"48104","PERIAPSIS":"546.289","FILE":"3777485","DECAY_DATE":null,"GP_ID":"224712141","PERIOD":"95.592","REF_FRAME":"TEME","ECCENTRICITY":"0.00013150","EPOCH":"2023-02-07T14:15:46.203264"},{"CENTER_NAME":"EARTH","OBJECT_NAME":"STARLINK-2440","TLE_LINE2":"2 48105  53.0542 115.4865 0001232  85.5388 274.5742 15.06395868103718","BSTAR":"0.00000124110000","MEAN_MOTION":"15.06395868","CLASSIFICATION_TYPE":"U","TIME_SYSTEM":"UTC","APOAPSIS":"548.079","OBJECT_ID":"2021-027P","MEAN_MOTION_DOT":"-0.00000263","LAUNCH_DATE":"2021-04-07","INCLINATION":"53.0542","SEMIMAJOR_AXIS":"6925.361","RA_OF_ASC_NODE":"115.4865","EPHEMERIS_TYPE":"0","SITE":"AFETR","MEAN_MOTION_DDOT":"0.0000000000000","REV_AT_EPOCH":"10371","MEAN_ANOMALY":"274.5742","MEAN_ELEMENT_THEORY":"SGP4","RCS_SIZE":"LARGE","OBJECT_TYPE":"PAYLOAD","ARG_OF_PERICENTER":"85.5388","TLE_LINE1":"1 48105U 21027P   23038.89976235 -.00000263  00000-0  12411-5 0  9991","COUNTRY_CODE":"US","ELEMENT_SET_NO":"999","NORAD_CAT_ID":"48105","PERIAPSIS":"546.373","FILE":"3777976","DECAY_DATE":null,"GP_ID":"224742536","PERIOD":"95.592","REF_FRAME":"TEME","EPOCH":"2023-02-07T21:35:39.467040","ECCENTRICITY":"0.00012320"},{"SITE":"AFETR","EPHEMERIS_TYPE":"0","SEMIMAJOR_AXIS":"6925.326","RA_OF_ASC_NODE":"166.7575","INCLINATION":"53.0541","LAUNCH_DATE":"2021-04-07","MEAN_MOTION_DOT":"0.00001748","OBJECT_ID":"2021-027Q","CLASSIFICATION_TYPE":"U","TIME_SYSTEM":"UTC","APOAPSIS":"548.215","BSTAR":"0.00013620000000","MEAN_MOTION":"15.06407348","TLE_LINE2":"2 48106  53.0541 166.7575 0001478  92.5156 267.6002 15.06407348102974","CENTER_NAME":"EARTH","OBJECT_NAME":"STARLINK-2442","ECCENTRICITY":"0.00014780","EPOCH":"2023-02-07T14:50:55.781952","REF_FRAME":"TEME","GP_ID":"224742776","PERIOD":"95.592","DECAY_DATE":null,"PERIAPSIS":"546.167","FILE":"3777976","NORAD_CAT_ID":"48106","COUNTRY_CODE":"US","ELEMENT_SET_NO":"999","ARG_OF_PERICENTER":"92.5156","TLE_LINE1":"1 48106U 21027Q   23038.61870118  .00001748  00000-0  13620-3 0  9994","OBJECT_TYPE":"PAYLOAD","MEAN_ELEMENT_THEORY":"SGP4","MEAN_ANOMALY":"267.6002","RCS_SIZE":"LARGE","MEAN_MOTION_DDOT":"0.0000000000000","REV_AT_EPOCH":"10297"},{"OBJECT_NAME":"STARLINK-2443","CENTER_NAME":"EARTH","TLE_LINE2":"2 48107  53.0515 166.0835 0001515 111.7818 248.3333 15.06411462102996","APOAPSIS":"548.228","CLASSIFICATION_TYPE":"U","TIME_SYSTEM":"UTC","BSTAR":"0.00023698000000","MEAN_MOTION":"15.06411462","MEAN_MOTION_DOT":"0.00003251","OBJECT_ID":"2021-027R","LAUNCH_DATE":"2021-04-07","INCLINATION":"53.0515","RA_OF_ASC_NODE":"166.0835","SEMIMAJOR_AXIS":"6925.313","SITE":"AFETR","EPHEMERIS_TYPE":"0","REV_AT_EPOCH":"10299","MEAN_MOTION_DDOT":"0.0000000000000","OBJECT_TYPE":"PAYLOAD","RCS_SIZE":"LARGE","MEAN_ANOMALY":"248.3333","MEAN_ELEMENT_THEORY":"SGP4","ELEMENT_SET_NO":"999","COUNTRY_CODE":"US","TLE_LINE1":"1 48107U 21027R   23038.76613614  .00003251  00000-0  23698-3 0  9994","ARG_OF_PERICENTER":"111.7818","NORAD_CAT_ID":"48107","FILE":"3777976","PERIAPSIS":"546.129","DECAY_DATE":null,"REF_FRAME":"TEME","PERIOD":"95.591","GP_ID":"224741536","EPOCH":"2023-02-07T18:23:14.162496","ECCENTRICITY":"0.00015150"},{"DECAY_DATE":null,"FILE":"3777976","PERIAPSIS":"546.209","EPOCH":"2023-02-07T16:09:13.192704","ECCENTRICITY":"0.00014110","PERIOD":"95.592","GP_ID":"224741786","REF_FRAME":"TEME","RCS_SIZE":"LARGE","MEAN_ELEMENT_THEORY":"SGP4","MEAN_ANOMALY":"258.4497","OBJECT_TYPE":"PAYLOAD","REV_AT_EPOCH":"10283","MEAN_MOTION_DDOT":"0.0000000000000","NORAD_CAT_ID":"48108","TLE_LINE1":"1 48108U 21027S   23038.67306936  .00003294  00000-0  23985-3 0  9997","ARG_OF_PERICENTER":"101.6650","ELEMENT_SET_NO":"999","COUNTRY_CODE":"US","INCLINATION":"53.0532","LAUNCH_DATE":"2021-04-07","EPHEMERIS_TYPE":"0","SITE":"AFETR","RA_OF_ASC_NODE":"176.5028","SEMIMAJOR_AXIS":"6925.321","TLE_LINE2":"2 48108  53.0532 176.5028 0001411 101.6650 258.4497 15.06408885102834","OBJECT_NAME":"STARLINK-2444","CENTER_NAME":"EARTH","OBJECT_ID":"2021-027S","MEAN_MOTION_DOT":"0.00003294","MEAN_MOTION":"15.06408885","BSTAR":"0.00023985000000","APOAPSIS":"548.163","TIME_SYSTEM":"UTC","CLASSIFICATION_TYPE":"U"},{"DECAY_DATE":null,"PERIAPSIS":"546.321","FILE":"3777976","ECCENTRICITY":"0.00012040","EPOCH":"2023-02-07T19:40:12.117216","PERIOD":"95.591","GP_ID":"224743037","REF_FRAME":"TEME","MEAN_ANOMALY":"274.7053","MEAN_ELEMENT_THEORY":"SGP4","RCS_SIZE":"LARGE","OBJECT_TYPE":"PAYLOAD","MEAN_MOTION_DDOT":"0.0000000000000","REV_AT_EPOCH":"10272","NORAD_CAT_ID":"48109","ARG_OF_PERICENTER":"85.4074","TLE_LINE1":"1 48109U 21027T   23038.81958469  .00008658  00000-0  59912-3 0  9996","COUNTRY_CODE":"US","ELEMENT_SET_NO":"999","INCLINATION":"53.0516","LAUNCH_DATE":"2021-04-07","SITE":"AFETR","EPHEMERIS_TYPE":"0","SEMIMAJOR_AXIS":"6925.290","RA_OF_ASC_NODE":"185.8469","TLE_LINE2":"2 48109  53.0516 185.8469 0001204  85.4074 274.7053 15.06419128102727","CENTER_NAME":"EARTH","OBJECT_NAME":"STARLINK-2445","OBJECT_ID":"2021-027T","MEAN_MOTION_DOT":"0.00008658","BSTAR":"0.00059912000000","MEAN_MOTION":"15.06419128","CLASSIFICATION_TYPE":"U","TIME_SYSTEM":"UTC","APOAPSIS":"547.989"},{"LAUNCH_DATE":"2021-04-07","INCLINATION":"53.0539","SEMIMAJOR_AXIS":"6925.326","RA_OF_ASC_NODE":"176.2598","EPHEMERIS_TYPE":"0","SITE":"AFETR","CENTER_NAME":"EARTH","OBJECT_NAME":"STARLINK-2447","TLE_LINE2":"2 48110  53.0539 176.2598 0001222  98.4212 261.6915 15.06407445102854","BSTAR":"0.00016115000000","MEAN_MOTION":"15.06407445","TIME_SYSTEM":"UTC","CLASSIFICATION_TYPE":"U","APOAPSIS":"548.037","OBJECT_ID":"2021-027U","MEAN_MOTION_DOT":"0.00002120","PERIAPSIS":"546.344","FILE":"3777976","DECAY_DATE":null,"GP_ID":"224743277","PERIOD":"95.592","REF_FRAME":"TEME","ECCENTRICITY":"0.00012220","EPOCH":"2023-02-07T17:28:49.904832","MEAN_MOTION_DDOT":"0.0000000000000","REV_AT_EPOCH":"10285","MEAN_ANOMALY":"261.6915","MEAN_ELEMENT_THEORY":"SGP4","RCS_SIZE":"LARGE","OBJECT_TYPE":"PAYLOAD","ARG_OF_PERICENTER":"98.4212","TLE_LINE1":"1 48110U 21027U   23038.72835538  .00002120  00000-0  16115-3 0  9995","COUNTRY_CODE":"US","ELEMENT_SET_NO":"999","NORAD_CAT_ID":"48110"}];
